{
"type": "FeatureCollection",
"name": "UTV_footprint",
"crs": { "type": "name", "properties": { "name": "urn:ogc:def:crs:EPSG::32612" } },
"features": [
{ "type": "Feature", "properties": { }, "geometry": { "type": "Polygon", "coordinates": [ [ [ 588927.346911741187796, 4442305.01250992435962 ], [ 588924.14835685165599, 4442306.696464532054961 ], [ 588921.129534433595836, 4442308.571316137909889 ], [ 588918.256117534590885, 4442310.637457517907023 ], [ 588915.421147555694915, 4442312.782725646160543 ], [ 588912.443682108889334, 4442314.848096932284534 ], [ 588909.153899383498356, 4442316.722127676010132 ], [ 588905.537509026704356, 4442318.407378199510276 ], [ 588901.863950378959998, 4442320.018128115683794 ], [ 588898.703869262011722, 4442321.709558520466089 ], [ 588896.76669336121995, 4442323.580718909390271 ], [ 588896.577996942214668, 4442325.614124102517962 ], [ 588898.146411038236693, 4442327.696976542472839 ], [ 588900.846727605792694, 4442329.71342303045094 ], [ 588903.664237171877176, 4442331.63881741464138 ], [ 588905.709418286685832, 4442333.560010475106537 ], [ 588906.684804394841194, 4442335.60752216167748 ], [ 588906.976439400226809, 4442337.862172872759402 ], [ 588907.304767520632595, 4442340.313872623257339 ], [ 588908.211092297337018, 4442342.890893940813839 ], [ 588909.782703899545595, 4442345.511250494047999 ], [ 588911.812141829519533, 4442348.102942915633321 ], [ 588914.222028458374552, 4442350.591256378218532 ], [ 588917.379372980212793, 4442352.893871420063078 ], [ 588922.031399683095515, 4442354.952710557729006 ], [ 588928.901905521284789, 4442356.783601488918066 ], [ 588938.236093927989714, 4442358.492528311908245 ], [ 588949.598986971657723, 4442360.221018269658089 ], [ 588962.035303253214806, 4442362.034419694915414 ], [ 588974.450416150968522, 4442363.821947048418224 ], [ 588985.956326850224286, 4442365.294346966780722 ], [ 588996.015210945974104, 4442366.113758399151266 ], [ 589004.405229512951337, 4442366.088783229701221 ], [ 589011.143499455531128, 4442365.295918223448098 ], [ 589016.446201956132427, 4442364.027808611281216 ], [ 589020.689268463407643, 4442362.605413652025163 ], [ 589024.309753679321148, 4442361.203796208836138 ], [ 589027.671879540081136, 4442359.818899247795343 ], [ 589030.986065090983175, 4442358.368813030421734 ], [ 589034.326337609207258, 4442356.812897367402911 ], [ 589037.699490149621852, 4442355.184657755307853 ], [ 589041.088101810193621, 4442353.5344099085778 ], [ 589044.440888670273125, 4442351.854836512356997 ], [ 589047.648814197862521, 4442350.056779542937875 ], [ 589050.562188804615289, 4442348.007881047204137 ], [ 589053.069172976305708, 4442345.604516011662781 ], [ 589055.199287029681727, 4442342.837837588973343 ], [ 589057.175714151468128, 4442339.82229133695364 ], [ 589059.35949847381562, 4442336.771311233751476 ], [ 589062.112201869371347, 4442333.93240371439606 ], [ 589065.675862361793406, 4442331.516983918845654 ], [ 589070.135525729041547, 4442329.652282871305943 ], [ 589075.415108984569088, 4442328.350981950759888 ], [ 589081.218579963082448, 4442327.486259006895125 ], [ 589086.953202904202044, 4442326.794752601534128 ], [ 589091.812511142343283, 4442325.952412489801645 ], [ 589095.122160835424438, 4442324.716604944318533 ], [ 589096.772824511630461, 4442323.03948381356895 ], [ 589097.38369548576884, 4442321.048347907140851 ], [ 589097.999950009165332, 4442318.901822105050087 ], [ 589099.496329615591094, 4442316.65436044242233 ], [ 589102.080976161523722, 4442314.249994436278939 ], [ 589105.19700261275284, 4442311.625603690743446 ], [ 589107.851871834369376, 4442308.795686013065279 ], [ 589109.185840473975986, 4442305.835020879283547 ], [ 589108.98782579950057, 4442302.805888937786222 ], [ 589107.866559771355242, 4442299.730013582855463 ], [ 589106.92711709276773, 4442296.629350749775767 ], [ 589107.09731158753857, 4442293.565423883497715 ], [ 589108.519881299347617, 4442290.615084119141102 ], [ 589110.417087198817171, 4442287.811420807614923 ], [ 589111.503819100908004, 4442285.130927886813879 ], [ 589110.647113520652056, 4442282.558731268160045 ], [ 589107.360671476693824, 4442280.176088420674205 ], [ 589101.920842003077269, 4442278.187535378150642 ], [ 589095.160740571562201, 4442276.857655477710068 ], [ 589088.121217498905025, 4442276.39631768874824 ], [ 589081.708527902141213, 4442276.859467975795269 ], [ 589076.455909409443848, 4442278.121340398676693 ], [ 589072.462763657793403, 4442279.947589948773384 ], [ 589069.530373995308764, 4442282.156426876783371 ], [ 589067.39785240450874, 4442284.787147832103074 ], [ 589065.90172403852921, 4442288.139119771309197 ], [ 589064.950766195193864, 4442292.57806461956352 ], [ 589064.38847545767203, 4442298.162254490889609 ], [ 589063.92958621121943, 4442304.324651304632425 ], [ 589063.276184022426605, 4442309.886081342585385 ], [ 589062.319542159908451, 4442313.483692800626159 ], [ 589061.223530415561981, 4442314.19687101431191 ], [ 589060.282741914736107, 4442311.985084550455213 ], [ 589059.658888611593284, 4442307.668498236685991 ], [ 589059.216413719812408, 4442302.490398940630257 ], [ 589058.593828889541328, 4442297.55343534424901 ], [ 589057.447253645630553, 4442293.445232977159321 ], [ 589055.669427633518353, 4442290.194722807966173 ], [ 589053.42354867560789, 4442287.49235234875232 ], [ 589050.983719707233831, 4442284.997223633341491 ], [ 589048.509284595376812, 4442282.562943970784545 ], [ 589045.90795839834027, 4442280.292738813906908 ], [ 589042.865990640129894, 4442278.431571625173092 ], [ 589039.0087743580807, 4442277.182313446886837 ], [ 589034.077955058543012, 4442276.563662992790341 ], [ 589028.019864915404469, 4442276.393434338271618 ], [ 589020.967302361270413, 4442276.401020186021924 ], [ 589013.186498693889007, 4442276.39558579493314 ], [ 589005.061475137481466, 4442276.385757811367512 ], [ 588997.093224849784747, 4442276.576021058484912 ], [ 588989.816973271314055, 4442277.238040551543236 ], [ 588983.604262235574424, 4442278.53364276420325 ], [ 588978.473378718132153, 4442280.401728195138276 ], [ 588974.092347968369722, 4442282.582326071336865 ], [ 588970.012388994102366, 4442284.757977676577866 ], [ 588965.948843979975209, 4442286.715437911450863 ], [ 588961.876439299085177, 4442288.428652706556022 ], [ 588957.892443854012527, 4442290.029127013869584 ], [ 588954.023297344800085, 4442291.701241808012128 ], [ 588950.17268337297719, 4442293.569827533327043 ], [ 588946.230831424705684, 4442295.635395174846053 ], [ 588942.198591229622252, 4442297.782092697918415 ], [ 588938.193743716925383, 4442299.848903103731573 ], [ 588934.352354098111391, 4442301.72374271787703 ], [ 588930.739475878071971, 4442303.407551685348153 ], [ 588927.346911741187796, 4442305.01250992435962 ] ] ] } }
]
}
